KUIPER-00386            
1 68921U 26098C   26155.12912967  .00018008  00000+0  52143-3 0  9991
2 68921  51.8739 130.4864 0003335 125.6593 234.4704 15.35639073  5340
KUIPER-00388            
1 68922U 26098D   26155.10690611  .00017289  00000+0  60986-3 0  9993
2 68922  51.8742 131.8067 0022365  96.6691 263.6839 15.29120491  5328
KUIPER-00405            
1 68923U 26098E   26154.54460185 -.00004843  00000+0 -14360-3 0  9991
2 68923  51.8755 134.0613 0014417 100.3633 259.8977 15.31666112  5242
KUIPER-00408            
1 68924U 26098F   26154.66685185 -.00007439  00000+0 -24392-3 0  9994
2 68924  51.8747 133.7081 0014906  98.6627 100.1537 15.29400717  5833
KUIPER-00409            
1 68925U 26098G   26155.09219770  .00027973  00000+0  85725-3 0  9996
2 68925  51.8722 130.9775 0008101  98.3496 261.8408 15.33547578  5336
KUIPER-00410            
1 68926U 26098H   26155.25004630  .00014497  00000+0  52226-3 0  9999
2 68926  51.8736 130.8604 0014218 102.6870  96.6828 15.28708054  5920
KUIPER-00412            
1 68927U 26098J   26155.11527215  .00031688  00000+0  88167-3 0  9998
2 68927  51.8781 130.4030 0003616 149.4629 210.6568 15.36545437  5349
KUIPER-00413            
1 68928U 26098K   26155.11253022  .00036977  00000+0  12725-2 0  9993
2 68928  51.8766 131.8433 0015671  88.8685 271.4094 15.29595469  5326
KUIPER-00414            
1 68929U 26098L   26155.25004630 -.00001248  00000+0 -40810-4 0  9991
2 68929  51.8823 131.3429 0023274  98.5999 205.5474 15.20472198  5015
KUIPER-00415            
1 68930U 26098M   26154.19773400  .00022327  00000+0  69871-3 0  9999
2 68930  51.8771 135.4960 0011208  77.3281 282.8956 15.32984864  5190
KUIPER-00416            
1 68931U 26098N   26154.19996142  .00033753  00000+0  93132-3 0  9992
2 68931  51.8746 134.7684 0001347 131.4139 228.6963 15.36777844  5205
KUIPER-00420            
1 68932U 26098P   26155.13063746  .00040951  00000+0  11684-2 0  9992
2 68932  51.8769 130.5056 0003708 107.8246 252.3145 15.35635641  5345
KUIPER-00421            
1 68933U 26098Q   26155.15489951  .00042313  00000+0  12722-2 0  9993
2 68933  51.8762 130.6646 0008924  92.3870 267.8137 15.33941974  5340
KUIPER-00425            
1 68934U 26098R   26155.08931413  .00026354  00000+0  91047-3 0  9996
2 68934  51.8727 131.6924 0019055 104.6973 255.6125 15.29588369  5320
KUIPER-00430            
1 68935U 26098S   26155.09812405  .00032826  00000+0  11225-2 0  9997
2 68935  51.8747 131.7603 0021104 110.1661 250.1595 15.29765236  5323
KUIPER-00431            
1 68936U 26098T   26155.10653091  .00017494  00000+0  63840-3 0  9999
2 68936  51.8739 131.8050 0018050 100.2940 260.0079 15.28079493  5327
KUIPER-00432            
1 68937U 26098U   26155.12303560  .00022902  00000+0  76254-3 0  9998
2 68937  51.8756 131.1800 0012132  95.7387 264.4981 15.30967892  5334
KUIPER-00434            
1 68938U 26098V   26154.43377333  .00025665  00000+0  75692-3 0  9995
2 68938  51.8712 134.0700 0007964  85.4009 274.7886 15.34811478  5231
KUIPER-00436            
1 68939U 26098W   26155.11329166  .00035664  00000+0  11087-2 0  9990
2 68939  51.8750 131.1186 0011514 101.7299 258.4979 15.32937334  5330
KUIPER-00438            
1 68940U 26098X   26155.08323295  .00027378  00000+0  82777-3 0  9993
2 68940  51.8739 130.9315 0006148 108.1848 251.9807 15.34000301  5333
KUIPER-00439            
1 68941U 26098Y   26155.16765220  .00023008  00000+0  73347-3 0  9990
2 68941  51.8754 130.7469 0007780 104.5780 255.6068 15.32404215  5348
KUIPER-00440            
1 68942U 26098Z   26155.08412910  .00024429  00000+0  73220-3 0  9995
2 68942  51.8764 130.9454 0004297 106.1610 253.9849 15.34348792  5332
KUIPER-00442            
1 68943U 26098AA  26155.08657382  .00015907  00000+0  48028-3 0  9999
2 68943  51.8768 130.9603 0006622  99.4754 260.6981 15.34401247  5337
KUIPER-00446            
1 68944U 26098AB  26155.15044604  .00030173  00000+0  90708-3 0  9999
2 68944  51.8723 130.6234 0006277  93.3176 266.8528 15.34128314  5340
KUIPER-00451            
1 68945U 26098AC  26154.17447080  .00019587  00000+0  71111-3 0  9999
2 68945  51.8756 136.0778 0013807  98.1410 262.1140 15.28229692  5186
KUIPER-00452            
1 68946U 26098AD  26155.12820260  .00033974  00000+0  96356-3 0  9995
2 68946  51.8755 130.4838 0003801  85.7769 274.3651 15.35912192  5345
KUIPER-00453            
1 68947U 26098AE  26155.11496881  .00027972  00000+0  77909-3 0  9997
2 68947  51.8747 130.4073 0002496  84.1226 276.0045 15.36581264  5347
KUIPER-00454            
1 68948U 26098AF  26155.11458432  .00029613  00000+0  10815-2 0  9994
2 68948  51.8767 131.8670 0017500 106.9641 253.3262 15.27736093  5323
KUIPER-00455            
1 68949U 26098AG  26154.19741867  .00019336  00000+0  68397-3 0  9999
2 68949  51.8755 136.2140 0020086  95.7493 264.5781 15.28993499  5185
KUIPER-00458            
1 68950U 26098AH  26155.12317229  .00029589  00000+0  84202-3 0  9990
2 68950  51.8763 130.4602 0004006  96.1292 264.0151 15.35876424  5341
