OBJECT_NAME,OBJECT_ID,EPOCH,MEAN_MOTION,ECCENTRICITY,INCLINATION,RA_OF_ASC_NODE,ARG_OF_PERICENTER,MEAN_ANOMALY,EPHEMERIS_TYPE,CLASSIFICATION_TYPE,NORAD_CAT_ID,ELEMENT_SET_NO,REV_AT_EPOCH,BSTAR,MEAN_MOTION_DOT,MEAN_MOTION_DDOT
KUIPER-00386,2026-098C,2026-06-04T03:05:56.803488,15.35639073,.00033357,51.8739,130.4864,125.6593,234.4704,0,U,68921,999,534,.52143263E-3,.18008E-3,0
KUIPER-00388,2026-098D,2026-06-04T02:33:56.687904,15.29120491,.00223659,51.8742,131.8067,96.6691,263.6839,0,U,68922,999,532,.60985704E-3,.17289E-3,0
KUIPER-00405,2026-098E,2026-06-03T13:04:13.599840,15.31666112,.00144178,51.8755,134.0613,100.3633,259.8977,0,U,68923,999,524,-.14359899E-3,-.4843E-4,0
KUIPER-00408,2026-098F,2026-06-03T16:00:15.999840,15.29400717,.00149064,51.8747,133.7081,98.6627,100.1537,0,U,68924,999,583,-.24391983E-3,-.7439E-4,0
KUIPER-00409,2026-098G,2026-06-04T02:12:45.881280,15.33547578,.00081013,51.8722,130.9775,98.3496,261.8408,0,U,68925,999,533,.85724612E-3,.27973E-3,0
KUIPER-00410,2026-098H,2026-06-04T06:00:04.000320,15.28708054,.00142183,51.8736,130.8604,102.6870,96.6828,0,U,68926,999,592,.52226117E-3,.14497E-3,0
KUIPER-00412,2026-098J,2026-06-04T02:45:59.513760,15.36545437,.00036167,51.8781,130.4030,149.4629,210.6568,0,U,68927,999,534,.88166515E-3,.31688E-3,0
KUIPER-00413,2026-098K,2026-06-04T02:42:02.611008,15.29595469,.00156715,51.8766,131.8433,88.8685,271.4094,0,U,68928,999,532,.12725281E-2,.36977E-3,0
KUIPER-00414,2026-098L,2026-06-04T06:00:04.000320,15.20472198,.00232741,51.8823,131.3429,98.5999,205.5474,0,U,68929,999,501,-.40810071E-4,-.1248E-4,0
KUIPER-00415,2026-098M,2026-06-03T04:44:44.217600,15.32984864,.0011208,51.8771,135.4960,77.3281,282.8956,0,U,68930,999,519,.69871E-3,.22327E-3,0
KUIPER-00416,2026-098N,2026-06-03T04:47:56.666688,15.36777844,.0001347,51.8746,134.7684,131.4139,228.6963,0,U,68931,999,520,.93132E-3,.33753E-3,0
KUIPER-00420,2026-098P,2026-06-04T03:08:07.076544,15.35635641,.00037087,51.8769,130.5056,107.8246,252.3145,0,U,68932,999,534,.11684451E-2,.40951E-3,0
KUIPER-00421,2026-098Q,2026-06-04T03:43:03.317664,15.33941974,.00089248,51.8762,130.6646,92.3870,267.8137,0,U,68933,999,534,.12722265E-2,.42313E-3,0
KUIPER-00425,2026-098R,2026-06-04T02:08:36.740832,15.29588369,.00190552,51.8727,131.6924,104.6973,255.6125,0,U,68934,999,532,.91047323E-3,.26354E-3,0
KUIPER-00430,2026-098S,2026-06-04T02:21:17.917920,15.29765236,.00211043,51.8747,131.7603,110.1661,250.1595,0,U,68935,999,532,.11225064E-2,.32826E-3,0
KUIPER-00431,2026-098T,2026-06-04T02:33:24.270624,15.28079493,.00180501,51.8739,131.8050,100.2940,260.0079,0,U,68936,999,532,.63840244E-3,.17494E-3,0
KUIPER-00432,2026-098U,2026-06-04T02:57:10.275840,15.30967892,.00121326,51.8756,131.1800,95.7387,264.4981,0,U,68937,999,533,.7625358E-3,.22902E-3,0
KUIPER-00434,2026-098V,2026-06-03T10:24:38.015712,15.34811478,.0007964,51.8712,134.0700,85.4009,274.7886,0,U,68938,999,523,.75691868E-3,.25665E-3,0
KUIPER-00436,2026-098W,2026-06-04T02:43:08.399424,15.32937334,.00115144,51.8750,131.1186,101.7299,258.4979,0,U,68939,999,533,.11086924E-2,.35664E-3,0
KUIPER-00438,2026-098X,2026-06-04T01:59:51.326880,15.34000301,.00061481,51.8739,130.9315,108.1848,251.9807,0,U,68940,999,533,.82776686E-3,.27378E-3,0
KUIPER-00439,2026-098Y,2026-06-04T04:01:25.150080,15.32404215,.00077802,51.8754,130.7469,104.5780,255.6068,0,U,68941,999,534,.7334691E-3,.23008E-3,0
KUIPER-00440,2026-098Z,2026-06-04T02:01:08.754240,15.34348792,.00042976,51.8764,130.9454,106.1610,253.9849,0,U,68942,999,533,.73220194E-3,.24429E-3,0
KUIPER-00442,2026-098AA,2026-06-04T02:04:39.978048,15.34401247,.00066223,51.8768,130.9603,99.4754,260.6981,0,U,68943,999,533,.48027521E-3,.15907E-3,0
KUIPER-00446,2026-098AB,2026-06-04T03:36:38.537856,15.34128314,.00062773,51.8723,130.6234,93.3176,266.8528,0,U,68944,999,534,.90708081E-3,.30173E-3,0
KUIPER-00451,2026-098AC,2026-06-03T04:11:14.277120,15.28229692,.0013807,51.8756,136.0778,98.1410,262.1140,0,U,68945,999,518,.71111E-3,.19587E-3,0
KUIPER-00452,2026-098AD,2026-06-04T03:04:36.704640,15.35912192,.00038019,51.8755,130.4838,85.7769,274.3651,0,U,68946,999,534,.96355917E-3,.33974E-3,0
KUIPER-00453,2026-098AE,2026-06-04T02:45:33.305184,15.36581264,.00024961,51.8747,130.4073,84.1226,276.0045,0,U,68947,999,534,.77908585E-3,.27972E-3,0
KUIPER-00454,2026-098AF,2026-06-04T02:45:00.085248,15.27736093,.00175007,51.8767,131.8670,106.9641,253.3262,0,U,68948,999,532,.10814648E-2,.29613E-3,0
KUIPER-00455,2026-098AG,2026-06-03T04:44:16.973088,15.28993499,.0020086,51.8755,136.2140,95.7493,264.5781,0,U,68949,999,518,.68397E-3,.19336E-3,0
KUIPER-00458,2026-098AH,2026-06-04T02:57:22.085856,15.35876424,.00040063,51.8763,130.4602,96.1292,264.0151,0,U,68950,999,534,.84201918E-3,.29589E-3,0
